[{"OBJECT_NAME":"STARLINK-36203","OBJECT_ID":"2025-304Y","EPOCH":"2026-03-09T17:06:21.145536","MEAN_MOTION":14.98333151,"ECCENTRICITY":0.00041027,"INCLINATION":70.0025,"RA_OF_ASC_NODE":174.5769,"ARG_OF_PERICENTER":269.7845,"MEAN_ANOMALY":90.2844,"EPHEMERIS_TYPE":0,"CLASSIFICATION_TYPE":"U","NORAD_CAT_ID":67214,"ELEMENT_SET_NO":999,"REV_AT_EPOCH":1388,"BSTAR":0.00025089014,"MEAN_MOTION_DOT":2.902e-5,"MEAN_MOTION_DDOT":0},{"OBJECT_NAME":"COSMOS 921","OBJECT_ID":"1977-055A","EPOCH":"2026-03-09T22:48:25.254720","MEAN_MOTION":14.96601907,"ECCENTRICITY":0.00365313,"INCLINATION":75.8341,"RA_OF_ASC_NODE":6.4444,"ARG_OF_PERICENTER":239.9272,"MEAN_ANOMALY":119.8299,"EPHEMERIS_TYPE":0,"CLASSIFICATION_TYPE":"U","NORAD_CAT_ID":10095,"ELEMENT_SET_NO":999,"REV_AT_EPOCH":63955,"BSTAR":0.00011088241,"MEAN_MOTION_DOT":1.258e-5,"MEAN_MOTION_DDOT":0}]
